CCSDS_OMM_VERS = 2.0
CREATION_DATE  = 
ORIGINATOR     = 

OBJECT_NAME    = STARLINK-36879
OBJECT_ID      = 2026-038X
CENTER_NAME    = EARTH
REF_FRAME      = TEME
TIME_SYSTEM    = UTC
MEAN_ELEMENT_THEORY = SGP/SGP4

EPOCH          = 2026-03-06T14:00:01.000224
MEAN_MOTION    = 16.00278162
ECCENTRICITY   = .00011515
INCLINATION    = 97.2717
RA_OF_ASC_NODE = 75.6481
ARG_OF_PERICENTER = 95.2912
MEAN_ANOMALY   = 203.3679

EPHEMERIS_TYPE = 0
CLASSIFICATION_TYPE = U
NORAD_CAT_ID   = 67982
ELEMENT_SET_NO = 999
REV_AT_EPOCH   = 269
BSTAR          = -.30336148E-2
MEAN_MOTION_DOT = -.1549786E-1
MEAN_MOTION_DDOT = .74006926E-3

CCSDS_OMM_VERS = 2.0
CREATION_DATE  = 
ORIGINATOR     = 

OBJECT_NAME    = STARLINK-36867
OBJECT_ID      = 2026-038Y
CENTER_NAME    = EARTH
REF_FRAME      = TEME
TIME_SYSTEM    = UTC
MEAN_ELEMENT_THEORY = SGP/SGP4

EPOCH          = 2026-03-06T14:00:01.000224
MEAN_MOTION    = 16.00558911
ECCENTRICITY   = .00011155
INCLINATION    = 97.2716
RA_OF_ASC_NODE = 75.6512
ARG_OF_PERICENTER = 87.9453
MEAN_ANOMALY   = 217.0271

EPHEMERIS_TYPE = 0
CLASSIFICATION_TYPE = U
NORAD_CAT_ID   = 67983
ELEMENT_SET_NO = 999
REV_AT_EPOCH   = 269
BSTAR          = -.29863718E-2
MEAN_MOTION_DOT = -.1550155E-1
MEAN_MOTION_DDOT = .74276267E-3

CCSDS_OMM_VERS = 2.0
CREATION_DATE  = 
ORIGINATOR     = 

OBJECT_NAME    = STARLINK-36266
OBJECT_ID      = 2026-038Z
CENTER_NAME    = EARTH
REF_FRAME      = TEME
TIME_SYSTEM    = UTC
MEAN_ELEMENT_THEORY = SGP/SGP4

EPOCH          = 2026-03-06T14:00:01.000224
MEAN_MOTION    = 16.00431660
ECCENTRICITY   = .00011868
INCLINATION    = 97.2717
RA_OF_ASC_NODE = 75.6499
ARG_OF_PERICENTER = 95.3540
MEAN_ANOMALY   = 206.7739

EPHEMERIS_TYPE = 0
CLASSIFICATION_TYPE = U
NORAD_CAT_ID   = 67984
ELEMENT_SET_NO = 999
REV_AT_EPOCH   = 266
BSTAR          = -.30107185E-2
MEAN_MOTION_DOT = -.1551529E-1
MEAN_MOTION_DDOT = .74291027E-3

CCSDS_OMM_VERS = 2.0
CREATION_DATE  = 
ORIGINATOR     = 

OBJECT_NAME    = STARLINK-36802
OBJECT_ID      = 2026-038AA
CENTER_NAME    = EARTH
REF_FRAME      = TEME
TIME_SYSTEM    = UTC
MEAN_ELEMENT_THEORY = SGP/SGP4

EPOCH          = 2026-03-06T14:00:01.000224
MEAN_MOTION    = 16.00670118
ECCENTRICITY   = .00010273
INCLINATION    = 97.2713
RA_OF_ASC_NODE = 75.6520
ARG_OF_PERICENTER = 97.1130
MEAN_ANOMALY   = 210.4636

EPHEMERIS_TYPE = 0
CLASSIFICATION_TYPE = U
NORAD_CAT_ID   = 67985
ELEMENT_SET_NO = 999
REV_AT_EPOCH   = 269
BSTAR          = -.29431791E-2
MEAN_MOTION_DOT = -.1537568E-1
MEAN_MOTION_DDOT = .73250988E-3

CCSDS_OMM_VERS = 2.0
CREATION_DATE  = 
ORIGINATOR     = 

OBJECT_NAME    = STARLINK-36535
OBJECT_ID      = 2026-039A
CENTER_NAME    = EARTH
REF_FRAME      = TEME
TIME_SYSTEM    = UTC
MEAN_ELEMENT_THEORY = SGP/SGP4

EPOCH          = 2026-03-06T14:00:01.000224
MEAN_MOTION    = 15.93376699
ECCENTRICITY   = .00017406
INCLINATION    = 42.9977
RA_OF_ASC_NODE = 74.1600
ARG_OF_PERICENTER = 272.4315
MEAN_ANOMALY   = 346.2778

EPHEMERIS_TYPE = 0
CLASSIFICATION_TYPE = U
NORAD_CAT_ID   = 67986
ELEMENT_SET_NO = 999
REV_AT_EPOCH   = 237
BSTAR          = -.40409603E-2
MEAN_MOTION_DOT = -.1489538E-1
MEAN_MOTION_DDOT = .63491836E-3

CCSDS_OMM_VERS = 2.0
CREATION_DATE  = 
ORIGINATOR     = 

OBJECT_NAME    = STARLINK-36744
OBJECT_ID      = 2026-039B
CENTER_NAME    = EARTH
REF_FRAME      = TEME
TIME_SYSTEM    = UTC
MEAN_ELEMENT_THEORY = SGP/SGP4

EPOCH          = 2026-03-06T14:00:01.000224
MEAN_MOTION    = 15.93518437
ECCENTRICITY   = .00018152
INCLINATION    = 42.9976
RA_OF_ASC_NODE = 74.1548
ARG_OF_PERICENTER = 268.5506
MEAN_ANOMALY   = 352.1374

EPHEMERIS_TYPE = 0
CLASSIFICATION_TYPE = U
NORAD_CAT_ID   = 67987
ELEMENT_SET_NO = 999
REV_AT_EPOCH   = 237
BSTAR          = -.39886536E-2
MEAN_MOTION_DOT = -.1481447E-1
MEAN_MOTION_DDOT = .62948023E-3

CCSDS_OMM_VERS = 2.0
CREATION_DATE  = 
ORIGINATOR     = 

OBJECT_NAME    = STARLINK-36734
OBJECT_ID      = 2026-039C
CENTER_NAME    = EARTH
REF_FRAME      = TEME
TIME_SYSTEM    = UTC
MEAN_ELEMENT_THEORY = SGP/SGP4

EPOCH          = 2026-03-06T14:00:01.000224
MEAN_MOTION    = 15.93665262
ECCENTRICITY   = .00017796
INCLINATION    = 42.9977
RA_OF_ASC_NODE = 74.1488
ARG_OF_PERICENTER = 272.3925
MEAN_ANOMALY   = 350.6841

EPHEMERIS_TYPE = 0
CLASSIFICATION_TYPE = U
NORAD_CAT_ID   = 67988
ELEMENT_SET_NO = 999
REV_AT_EPOCH   = 237
BSTAR          = -.39317785E-2
MEAN_MOTION_DOT = -.1471843E-1
MEAN_MOTION_DDOT = .62291046E-3

CCSDS_OMM_VERS = 2.0
CREATION_DATE  = 
ORIGINATOR     = 

OBJECT_NAME    = STARLINK-36957
OBJECT_ID      = 2026-039D
CENTER_NAME    = EARTH
REF_FRAME      = TEME
TIME_SYSTEM    = UTC
MEAN_ELEMENT_THEORY = SGP/SGP4

EPOCH          = 2026-03-06T14:00:01.000224
MEAN_MOTION    = 15.93809282
ECCENTRICITY   = .00018236
INCLINATION    = 42.9975
RA_OF_ASC_NODE = 74.1433
ARG_OF_PERICENTER = 271.9027
MEAN_ANOMALY   = 353.1470

EPHEMERIS_TYPE = 0
CLASSIFICATION_TYPE = U
NORAD_CAT_ID   = 67989
ELEMENT_SET_NO = 999
REV_AT_EPOCH   = 237
BSTAR          = -.38833875E-2
MEAN_MOTION_DOT = -.1464986E-1
MEAN_MOTION_DDOT = .61847432E-3

CCSDS_OMM_VERS = 2.0
CREATION_DATE  = 
ORIGINATOR     = 

OBJECT_NAME    = STARLINK-36951
OBJECT_ID      = 2026-039E
CENTER_NAME    = EARTH
REF_FRAME      = TEME
TIME_SYSTEM    = UTC
MEAN_ELEMENT_THEORY = SGP/SGP4

EPOCH          = 2026-03-06T14:00:01.000224
MEAN_MOTION    = 15.93961204
ECCENTRICITY   = .00018806
INCLINATION    = 42.9976
RA_OF_ASC_NODE = 74.1375
ARG_OF_PERICENTER = 268.7953
MEAN_ANOMALY   = 358.5823

EPHEMERIS_TYPE = 0
CLASSIFICATION_TYPE = U
NORAD_CAT_ID   = 67990
ELEMENT_SET_NO = 999
REV_AT_EPOCH   = 237
BSTAR          = -.38633216E-2
MEAN_MOTION_DOT = -.1469209E-1
MEAN_MOTION_DDOT = .62268696E-3

CCSDS_OMM_VERS = 2.0
CREATION_DATE  = 
ORIGINATOR     = 

OBJECT_NAME    = STARLINK-36941
OBJECT_ID      = 2026-039F
CENTER_NAME    = EARTH
REF_FRAME      = TEME
TIME_SYSTEM    = UTC
MEAN_ELEMENT_THEORY = SGP/SGP4

EPOCH          = 2026-03-06T14:00:01.000224
MEAN_MOTION    = 15.94099930
ECCENTRICITY   = .00017897
INCLINATION    = 42.9976
RA_OF_ASC_NODE = 74.1328
ARG_OF_PERICENTER = 269.3382
MEAN_ANOMALY   = 359.8218

EPHEMERIS_TYPE = 0
CLASSIFICATION_TYPE = U
NORAD_CAT_ID   = 67991
ELEMENT_SET_NO = 999
REV_AT_EPOCH   = 237
BSTAR          = -.3806919E-2
MEAN_MOTION_DOT = -.1458608E-1
MEAN_MOTION_DDOT = .61531195E-3

CCSDS_OMM_VERS = 2.0
CREATION_DATE  = 
ORIGINATOR     = 

OBJECT_NAME    = STARLINK-36950
OBJECT_ID      = 2026-039G
CENTER_NAME    = EARTH
REF_FRAME      = TEME
TIME_SYSTEM    = UTC
MEAN_ELEMENT_THEORY = SGP/SGP4

EPOCH          = 2026-03-06T14:00:01.000224
MEAN_MOTION    = 15.94243610
ECCENTRICITY   = .00018007
INCLINATION    = 42.9976
RA_OF_ASC_NODE = 74.1273
ARG_OF_PERICENTER = 269.9592
MEAN_ANOMALY   = 1.4348

EPHEMERIS_TYPE = 0
CLASSIFICATION_TYPE = U
NORAD_CAT_ID   = 67992
ELEMENT_SET_NO = 999
REV_AT_EPOCH   = 237
BSTAR          = -.37596695E-2
MEAN_MOTION_DOT = -.1451684E-1
MEAN_MOTION_DDOT = .61083404E-3

CCSDS_OMM_VERS = 2.0
CREATION_DATE  = 
ORIGINATOR     = 

OBJECT_NAME    = STARLINK-36975
OBJECT_ID      = 2026-039H
CENTER_NAME    = EARTH
REF_FRAME      = TEME
TIME_SYSTEM    = UTC
MEAN_ELEMENT_THEORY = SGP/SGP4

EPOCH          = 2026-03-06T14:00:01.000224
MEAN_MOTION    = 15.94387232
ECCENTRICITY   = .00017919
INCLINATION    = 42.9975
RA_OF_ASC_NODE = 74.1219
ARG_OF_PERICENTER = 272.3822
MEAN_ANOMALY   = 1.1084

EPHEMERIS_TYPE = 0
CLASSIFICATION_TYPE = U
NORAD_CAT_ID   = 67993
ELEMENT_SET_NO = 999
REV_AT_EPOCH   = 237
BSTAR          = -.37191166E-2
MEAN_MOTION_DOT = -.1447151E-1
MEAN_MOTION_DDOT = .60820734E-3

